IRIDIUM 171             
1 43929U 19002H   25015.54868643  .00000122  00000+0  36502-4 0  9990
2 43929  86.3979 210.1133 0002414  94.2472 265.8999 14.34217613314762
IRIDIUM 170             
1 43930U 19002J   25015.59110200  .00000536  00000+0  81140-4 0  9993
2 43930  86.6098 209.8778 0001978  88.9626 271.1818 14.72239168323103
IRIDIUM 167             
1 43931U 19002K   25015.61211673  .00000039  00000+0  69762-5 0  9998
2 43931  86.3971 209.8559 0002182 101.8283 258.3158 14.34218229314770
IRIDIUM 181             
1 56726U 23068S   25014.79993074  .00000565  00000+0  16146-3 0  9991
2 56726  86.5177 273.3224 0003569 110.9808 249.1775 14.43413959 87660
IRIDIUM 177             
1 56727U 23068T   25015.49427209  .00000079  00000+0  68341-5 0  9998
2 56727  86.1965 214.5445 0002001  83.5173 276.6275 14.80201888 89786
IRIDIUM 174             
1 56728U 23068U   25015.55645464  .00000722  00000+0  91469-4 0  9992
2 56728  86.1973 214.6358 0002457  84.9616 275.1886 14.80227940 89792
IRIDIUM 178             
1 56729U 23068V   25015.61862898  .00000059  00000+0  43288-5 0  9992
2 56729  86.5757 242.1174 0002930  79.6015 280.5536 14.80230324 89803
IRIDIUM 179             
1 56730U 23068W   25015.61320778  .00001873  00000+0  24290-3 0  9995
2 56730  86.6765 248.9289 0002297  88.9811 271.1674 14.80254276 89800
